OBJECT_NAME,OBJECT_ID,EPOCH,MEAN_MOTION,ECCENTRICITY,INCLINATION,RA_OF_ASC_NODE,ARG_OF_PERICENTER,MEAN_ANOMALY,EPHEMERIS_TYPE,CLASSIFICATION_TYPE,NORAD_CAT_ID,ELEMENT_SET_NO,REV_AT_EPOCH,BSTAR,MEAN_MOTION_DOT,MEAN_MOTION_DDOT
LEMUR-2-ROUNDTRIPPER,2025-009DG,2026-07-22T11:40:42.128544,15.04307536,.00043224,97.7239,286.1257,49.7670,310.3934,0,U,62711,999,8293,.59007128E-3,.8163E-4,0
LEMUR-2-MYNAMEISJEFF,2025-009DH,2026-07-22T11:38:35.047104,15.04300993,.00043178,97.7284,286.5267,82.8993,277.2724,0,U,62712,999,8293,.61900455E-3,.8566E-4,0
LEMUR-2-LEIA-PHILIP,2025-052AN,2026-07-22T10:05:30.213312,14.97397993,.00050787,97.6785,94.7725,104.7375,255.4410,0,U,63246,999,7394,.72086126E-4,.78E-5,0
LEMUR-2-LIA-MARTIN,2025-052AQ,2026-07-22T06:40:46.651872,14.98060500,.00047501,97.6844,95.1638,72.6220,287.5521,0,U,63248,999,7393,.28273444E-3,.3286E-4,0
LEMUR-2-DELOITTE-1,2025-052BB,2026-07-22T04:38:05.314848,14.97823061,.00025209,97.6886,95.4100,55.0354,305.1105,0,U,63259,999,7393,.33199912E-3,.3845E-4,0
LEMUR-2-EMERSONROSE,2025-052BD,2026-07-22T06:24:28.481184,14.99330942,.00022265,97.6881,96.1125,44.3122,315.8279,0,U,63261,999,7399,.29421975E-3,.3537E-4,0
LEMUR-2-MARACHE-FRAN,2025-052BE,2026-07-22T05:14:13.788096,15.00348969,.00060543,97.6811,96.4371,224.6548,135.4189,0,U,63262,999,7401,.3122921E-3,.3861E-4,0
LEMUR-2-THEFALCONER,2025-052BG,2026-07-22T06:59:41.582400,14.97587786,.00009671,97.6807,95.0892,205.9281,154.1893,0,U,63264,999,7394,.26833751E-3,.3077E-4,0
LEMUR-2-UNTITLED-SC,2025-061A,2026-07-21T20:42:20.412000,15.13676744,.00198398,97.5661,177.9807,141.0529,219.2136,0,U,63351,999,7283,.19136642E-3,.3391E-4,0
LEMUR-2-ESPERANZA,2025-061B,2026-07-22T08:47:38.191200,15.13785213,.00194802,97.5670,178.5831,138.7473,221.5234,0,U,63352,999,7291,.15067651E-3,.2664E-4,0
LEMUR-2-KREMPEL-BRO2,2025-061C,2026-07-22T09:12:02.709216,15.14213390,.0020619,97.5713,179.1779,131.7084,228.5916,0,U,63353,999,7293,.1738229E-3,.3123E-4,0
LEMUR-2-THERMORAPTOR,2025-061D,2026-07-22T08:43:28.915104,15.14295843,.00203421,97.5720,179.2406,130.7428,229.5574,0,U,63354,999,7293,.18889512E-3,.3407E-4,0
LEMUR-2-NEUROSPICY,2025-061E,2026-07-21T20:52:44.875776,15.14412378,.00181091,97.5646,178.3489,135.2417,225.0280,0,U,63355,999,7286,.20384873E-3,.3691E-4,0
LEMUR-2-TILLINFINITY,2025-061F,2026-07-21T21:24:16.627968,15.14997848,.00195482,97.5632,178.6855,124.2631,236.0456,0,U,63356,999,7289,.20623235E-3,.38E-4,0
LEMUR-2-KREMPEL-BRO1,2025-061G,2026-07-21T19:17:20.442048,15.14803299,.00202149,97.5632,178.5041,125.9156,234.3956,0,U,63357,999,7287,.20147284E-3,.3691E-4,0
LEMUR-2-LANGER2SPACE,2025-061H,2026-07-22T04:01:13.872288,15.14497880,.00180409,97.5638,178.6659,132.6129,227.6628,0,U,63358,999,7291,.1760359E-3,.3185E-4,0
LEMUR-2-BALTO,2025-052BH,2026-07-22T06:27:22.772448,15.00405351,.0004994,97.6917,96.4854,296.7089,63.3623,0,U,63395,999,7402,.33072006E-3,.4098E-4,0
LEMUR-2-KRISH,2025-135AK,2026-07-22T13:58:45.757056,14.96488813,.00012248,97.7759,318.2257,110.9382,249.1970,0,U,64561,999,5921,.39382845E-3,.4415E-4,0
LEMUR-2-HUBBLE-4,2025-135AP,2026-07-22T07:25:04.524960,14.93698313,.00031866,97.7722,316.8110,145.8167,214.3259,0,U,64565,999,5911,.9959495E-4,.997E-5,0
LEMUR-2-SEJONG-2,2025-135BL,2026-07-22T14:25:45.031296,14.96958351,.00044063,97.7711,318.3900,184.8452,175.2728,0,U,64586,999,5924,.47541858E-3,.5409E-4,0
LEMUR-2-HUBBLE-5,2025-135BT,2026-07-22T13:59:54.786336,14.94226133,.00049224,97.7742,317.7591,206.1400,153.9572,0,U,64840,999,5919,.11510331E-3,.1177E-4,0
LEMUR-2-KARENDARRELL,2025-135BU,2026-07-22T14:21:45.722304,15.00573995,.00129907,97.7721,319.7656,82.3538,277.9161,0,U,64841,999,5932,.60725592E-3,.7622E-4,0
LEMUR-2-LUCILLE-ROSE,2025-135BV,2026-07-21T18:31:21.629568,15.00544258,.00155129,97.7692,318.9731,169.4240,190.7313,0,U,65403,999,5382,.54742656E-3,.6864E-4,0
LEMUR-2-AFFIE-WAUWIE,2025-248C,2026-07-22T11:51:10.939968,15.28473556,.00092617,45.3912,283.5023,289.5077,70.4811,0,U,66295,999,3999,.79387522E-3,.222E-3,0
OTTER SDM,2025-276N,2026-07-22T03:22:58.015200,15.20111322,.00048388,97.4195,276.0428,222.8248,137.2611,0,U,66678,999,3572,.29071715E-3,.6216E-4,0
LEMUR-2-STAS-GORBUK,2025-276W,2026-07-22T03:56:27.941856,15.19706170,.0004147,97.4227,276.1161,216.7749,143.3202,0,U,66686,999,3572,.22883191E-3,.482E-4,0
LEMUR-2-TEODOR,2025-276DG,2026-07-22T10:31:16.445856,15.21390266,.00020826,97.4133,276.6672,83.4185,276.7288,0,U,66768,999,3580,.24528829E-3,.5433E-4,0
LEMUR-2-LAILA,2025-276DQ,2026-07-22T05:02:08.863584,15.21615295,.00027925,97.4156,276.5851,84.3231,275.8324,0,U,66776,999,3577,.25904595E-3,.578E-4,0
LEMUR-2-CELIJO-SB-PK,2025-276DW,2026-07-22T04:30:28.664064,15.00337188,.00065935,97.5180,272.8090,47.4458,312.7322,0,U,66781,999,2787,.48558688E-3,.6039E-4,0
